     2.100          NAVIGATION                              RINEX VERSION / TYPE
fic2rin                                 12/22/2013 00:18:26 PGM / RUN BY / DATE
                                                            END OF HEADER
 9 13 12 21  4  0  0.0  .292015727609D-03  .284217094304D-11  .000000000000D+00
     .105000000000D+03  .956875000000D+02  .392337771014D-08 -.195112378825D+01
     .533834099770D-05  .168388781603D-01  .700727105141D-05  .515370736694D+04
     .532800000000D+06  .130385160446D-06 -.196096483963D+01  .337138772011D-06
     .982994054859D+00  .258531250000D+03  .175406681094D+01 -.765639034796D-08
     .226438003480D-09  .100000000000D+01  .177100000000D+04  .000000000000D+00
     .340000000000D+01  .000000000000D+00 -.605359673500D-08  .105000000000D+03
     .525606000000D+06  .400000000000D+01
10 13 12 21  4  0  0.0 -.106733758003D-03 -.159161572810D-11  .000000000000D+00
     .720000000000D+02  .900000000000D+01  .530593529922D-08  .799280378219D+00
     .517815351486D-06  .133167019812D-01  .527128577232D-05  .515368026352D+04
     .532800000000D+06 -.130385160446D-06  .224243886834D+01  .106170773506D-06
     .942308067736D+00  .269406250000D+03  .843040803256D+00 -.860035823944D-08
    -.158220876249D-09  .100000000000D+01  .177100000000D+04  .000000000000D+00
     .340000000000D+01  .000000000000D+00 -.279396772385D-08  .720000000000D+02
     .525606000000D+06  .400000000000D+01
11 13 12 21  4  0  0.0 -.448529142886D-03 -.329691829393D-11  .000000000000D+00
     .760000000000D+02 -.251250000000D+02  .574845373189D-08 -.287512313048D+01
    -.126846134663D-05  .147811397910D-01  .100210309029D-04  .515369880676D+04
     .532800000000D+06  .182539224625D-06  .871075422165D+00 -.633299350739D-07
     .889774660492D+00  .145093750000D+03  .125146149690D+01 -.827177312398D-08
     .356086260993D-09  .100000000000D+01  .177100000000D+04  .000000000000D+00
     .240000000000D+01  .000000000000D+00 -.116415321827D-07  .760000000000D+02
     .525606000000D+06  .400000000000D+01
12 13 12 21  4  0  0.0  .175271648914D-03  .227373675443D-11  .000000000000D+00
     .710000000000D+02 -.230312500000D+02  .418696011798D-08  .286108553035D+01
    -.128895044327D-05  .463777361438D-02  .217370688915D-05  .515370515442D+04
     .532800000000D+06 -.782310962677D-07 -.877787281535D+00 -.745058059692D-07
     .986094820910D+00  .349593750000D+03  .326315800363D+00 -.805854995667D-08
    -.796461747257D-10  .100000000000D+01  .177100000000D+04  .000000000000D+00
     .240000000000D+01  .000000000000D+00 -.121071934700D-07  .710000000000D+02
     .525606000000D+06  .400000000000D+01
13 13 12 21  4  0  0.0  .479551963508D-04 -.375166564481D-11  .000000000000D+00
     .420000000000D+02  .171250000000D+02  .401552440557D-08 -.741655648866D+00
     .663101673126D-06  .509556685574D-02  .100228935480D-04  .515366308784D+04
     .532800000000D+06 -.800937414169D-07 -.290471455901D+01 -.279396772385D-07
     .979669633504D+00  .199093750000D+03  .219238063510D+01 -.774032241550D-08
    -.270725562521D-09  .100000000000D+01  .177100000000D+04  .000000000000D+00
     .240000000000D+01  .000000000000D+00 -.111758708954D-07  .420000000000D+02
     .525606000000D+06  .400000000000D+01
14 13 12 21  4  0  0.0  .207184348255D-03 -.113686837722D-11  .000000000000D+00
     .750000000000D+02  .187187500000D+02  .423517641210D-08 -.460695770034D+00
     .996515154839D-06  .730958150234D-02  .103730708361D-04  .515360128021D+04
     .532800000000D+06 -.484287738800D-07 -.293542899222D+01  .614672899246D-07
     .972272162947D+00  .189375000000D+03 -.198670912278D+01 -.789068582159D-08
    -.374658463172D-09  .100000000000D+01  .177100000000D+04  .000000000000D+00
     .240000000000D+01  .000000000000D+00 -.884756445885D-08  .750000000000D+02
     .525606000000D+06  .400000000000D+01
15 13 12 21  4  0  0.0 -.153328292072D-03 -.204636307899D-11  .000000000000D+00
     .270000000000D+02  .696875000000D+01  .498235039204D-08 -.975006301246D+00
     .255182385445D-06  .601483124774D-02  .911206007004D-05  .515361743164D+04
     .532800000000D+06  .102445483208D-06 -.304213009101D+01 -.558793544769D-07
     .938829868821D+00  .188093750000D+03  .209746943156D+00 -.816748306560D-08
    -.335728270144D-09  .100000000000D+01  .177100000000D+04  .000000000000D+00
     .240000000000D+01  .000000000000D+00 -.102445483208D-07  .270000000000D+02
     .525606000000D+06  .400000000000D+01
17 13 12 21  4  0  0.0 -.519286841154D-04 -.352429196937D-11  .000000000000D+00
     .940000000000D+02 -.871875000000D+02  .427589239380D-08 -.278008544012D+00
    -.454857945442D-05  .890254310798D-02  .850856304169D-05  .515372406769D+04
     .532800000000D+06 -.223517417908D-07  .174575719779D+00  .115483999252D-06
     .967610044911D+00  .221000000000D+03 -.216531757520D+01 -.807569352791D-08
    -.167864135072D-09  .100000000000D+01  .177100000000D+04  .000000000000D+00
     .340000000000D+01  .000000000000D+00 -.107102096081D-07  .940000000000D+02
     .525606000000D+06  .400000000000D+01
18 13 12 21  4  0  0.0  .291611999273D-03  .204636307899D-11  .000000000000D+00
     .340000000000D+02  .334375000000D+01  .575631120204D-08  .129077971998D+01
     .130385160446D-06  .145992593607D-01  .519491732121D-05  .515364864349D+04
     .532800000000D+06 -.305473804474D-06  .222235148021D+01  .745058059692D-08
     .926059193785D+00  .262062500000D+03 -.206769584925D+01 -.882215319238D-08
    -.675028117631D-10  .100000000000D+01  .177100000000D+04  .000000000000D+00
     .240000000000D+01  .000000000000D+00 -.111758708954D-07  .340000000000D+02
     .525606000000D+06  .400000000000D+01
19 13 12 21  4  0  0.0 -.426791142672D-03 -.261479726760D-11  .000000000000D+00
     .103000000000D+03 -.995312500000D+02  .418481717158D-08 -.114148802006D+01
    -.519677996635D-05  .969954917673D-02  .902079045773D-05  .515377648926D+04
     .532800000000D+06  .244006514549D-06  .225862675470D+00 -.162050127983D-06
     .964764493696D+00  .207843750000D+03  .399033363376D+00 -.785354141724D-08
    -.146791828755D-09  .100000000000D+01  .177100000000D+04  .000000000000D+00
     .240000000000D+01  .000000000000D+00 -.149011611938D-07  .103000000000D+03
     .525606000000D+06  .400000000000D+01
20 13 12 21  4  0  0.0  .146305654198D-03  .306954461848D-11  .000000000000D+00
     .370000000000D+02  .106875000000D+02  .556666044518D-08  .177557800896D+01
     .502914190292D-06  .591624714434D-02  .505708158016D-05  .515360886955D+04
     .532800000000D+06 -.447034835815D-07  .216910656667D+01 -.143423676491D-06
     .926925836696D+00  .262937500000D+03  .129630637872D+01 -.856749972790D-08
     .810748056625D-10  .100000000000D+01  .177100000000D+04  .000000000000D+00
     .240000000000D+01  .000000000000D+00 -.791624188423D-08  .370000000000D+02
     .525606000000D+06  .400000000000D+01
21 13 12 21  4  0  0.0 -.334007665515D-03 -.170530256582D-11  .000000000000D+00
     .870000000000D+02  .434375000000D+01  .495734935064D-08  .232812469981D+01
    -.186264514923D-08  .207777967444D-01  .101737678051D-04  .515358631516D+04
     .532800000000D+06  .949949026108D-07  .117575695068D+01 -.357627868652D-06
     .931721011520D+00  .164125000000D+03 -.208130398052D+01 -.788175687824D-08
     .504663878419D-09  .100000000000D+01  .177100000000D+04  .000000000000D+00
     .240000000000D+01  .000000000000D+00 -.111758708954D-07  .870000000000D+02
     .525606000000D+06  .400000000000D+01
23 13 12 21  4  0  0.0  .197067856789D-04 -.329691829393D-11  .000000000000D+00
     .880000000000D+02  .656250000000D+01  .458911972669D-08 -.149172134020D+01
     .121071934700D-06  .885179266334D-02  .925175845623D-05  .515361844635D+04
     .532800000000D+06  .596046447754D-07 -.299787084017D+01 -.135973095894D-06
     .953861748536D+00  .194843750000D+03 -.280908088460D+01 -.794211653532D-08
    -.256796410887D-09  .100000000000D+01  .177100000000D+04  .000000000000D+00
     .240000000000D+01  .000000000000D+00 -.200234353542D-07  .880000000000D+02
     .525606000000D+06  .400000000000D+01
24 13 12 21  4  0  0.0 -.201771035790D-04 -.682121026330D-12  .000000000000D+00
     .590000000000D+02  .987812500000D+02  .454983237592D-08 -.201579809015D+01
     .502914190292D-05  .155155791435D-02  .748783349991D-05  .515363930130D+04
     .532800000000D+06 -.167638063431D-07 -.197133979614D+01 -.279396772385D-07
     .957868125246D+00  .234812500000D+03  .928798145085D-01 -.808819404860D-08
     .216437586923D-09  .100000000000D+01  .177100000000D+04  .000000000000D+00
     .240000000000D+01  .000000000000D+00  .279396772385D-08  .590000000000D+02
     .525606000000D+06  .400000000000D+01
25 13 12 21  4  0  0.0  .381283462048D-05  .261479726760D-11  .000000000000D+00
     .760000000000D+02 -.145625000000D+02  .452018828399D-08  .199744133704D+01
    -.780448317528D-06  .287828431465D-02  .179000198841D-05  .515367858315D+04
     .532800000000D+06 -.117346644402D-06 -.918424584208D+00 -.149011611938D-07
     .974844537616D+00  .351593750000D+03  .638667060189D+00 -.830784605514D-08
    -.260725145963D-10  .100000000000D+01  .177100000000D+04  .000000000000D+00
     .240000000000D+01  .000000000000D+00  .558793544769D-08  .760000000000D+02
     .525606000000D+06  .400000000000D+01
27 13 12 21  4  0  0.0 -.946037471294D-05 -.261479726760D-11  .000000000000D+00
     .570000000000D+02 -.111906250000D+03  .430517932800D-08 -.479838404201D+00
    -.593811273575D-05  .535170198418D-03  .841729342937D-05  .515367701912D+04
     .532800000000D+06  .335276126862D-07  .130053984859D+00  .279396772385D-07
     .962275312252D+00  .218625000000D+03  .357979033961D+00 -.800354766560D-08
    -.265368196508D-09  .100000000000D+01  .177100000000D+04  .000000000000D+00
     .240000000000D+01  .000000000000D+00  .186264514923D-08  .570000000000D+02
     .525606000000D+06  .400000000000D+01
